{
    "links": {
        "self": "http://www.neowsapp.com/rest/v1/neo/3789387?api_key=iIulBulltgU6a56xZRHN4H3l9WmuAYTsLGpBGhQ2"
    },
    "id": "3789387",
    "neo_reference_id": "3789387",
    "name": "(2017 VR13)",
    "designation": "2017 VR13",
    "nasa_jpl_url": "http://ssd.jpl.nasa.gov/sbdb.cgi?sstr=3789387",
    "absolute_magnitude_h": 20.6,
    "estimated_diameter": {
        "kilometers": {
            "estimated_diameter_min": 0.2016299194,
            "estimated_diameter_max": 0.4508582062
        },
        "meters": {
            "estimated_diameter_min": 201.6299194428,
            "estimated_diameter_max": 450.8582061718
        },
        "miles": {
            "estimated_diameter_min": 0.1252869847,
            "estimated_diameter_max": 0.2801502144
        },
        "feet": {
            "estimated_diameter_min": 661.5155049046,
            "estimated_diameter_max": 1479.1936371367
        }
    },
    "is_potentially_hazardous_asteroid": false,
    "close_approach_data": [
        {
            "close_approach_date": "2017-10-24",
            "close_approach_date_full": "2017-Oct-24 03:43",
            "epoch_date_close_approach": 1508816580000,
            "relative_velocity": {
                "kilometers_per_second": "26.8938535564",
                "kilometers_per_hour": "96817.8728030296",
                "miles_per_hour": "60158.8610203047"
            },
            "miss_distance": {
                "astronomical": "0.305775045",
                "lunar": "118.946492505",
                "kilometers": "45743295.43115415",
                "miles": "28423565.76266127"
            },
            "orbiting_body": "Earth"
        }
    ],
    "orbital_data": {
        "orbit_id": "1",
        "orbit_determination_date": "2017-11-16 07:42:03",
        "first_observation_date": "2017-11-12",
        "last_observation_date": "2017-11-16",
        "data_arc_in_days": 4,
        "observations_used": 21,
        "orbit_uncertainty": "9",
        "minimum_orbit_intersection": ".22957",
        "jupiter_tisserand_invariant": "4.136",
        "epoch_osculation": "2458070.5",
        "eccentricity": ".5470428374937396",
        "semi_major_axis": "1.545917992698475",
        "inclination": "32.45921964012176",
        "ascending_node_longitude": "1.358045708837103",
        "orbital_period": "702.0662641440072",
        "perihelion_distance": ".700234627440075",
        "perihelion_argument": "324.020217560423",
        "aphelion_distance": "2.391601357956875",
        "perihelion_time": "2458020.751023283913",
        "mean_anomaly": "25.50988778762586",
        "mean_motion": ".5127721105342232",
        "equinox": "J2000",
        "orbit_class": {
            "orbit_class_type": "APO",
            "orbit_class_description": "Near-Earth asteroid orbits which cross the Earth’s orbit similar to that of 1862 Apollo",
            "orbit_class_range": "a (semi-major axis) > 1.0 AU; q (perihelion) < 1.017 AU"
        }
    },
    "is_sentry_object": false
}